CTC2_L_00542001-01
1 75890U 26577NF  26037.47798611  .00000000  00000+0  00000-0 0  9996
2 75890  97.9000   0.0000 0000000   0.0000   0.0000 14.75047588    16
CTC2_L_00542002-01
1 75891U 25073AJ  26037.47798611  .00000000  00000+0  00000-0 0  9997
2 75891  97.9000  12.0000 0000000   0.0000  48.0000 14.75047588    12
CTC2_L_00542003-01
1 75892U 22394GD  26037.47798611  .00000000  00000+0  00000-0 0  9991
2 75892  97.9000  24.0000 0000000   0.0000  96.0000 14.75047588    19
CTC2_L_00542004-01
1 75893U 26088YV  26037.47798611  .00000000  00000+0  00000-0 0  9996
2 75893  97.9000  36.0000 0000000   0.0000 144.0000 14.75047588    17
CTC2_L_00542005-01
1 75894U 25646GL  26037.47798611  .00000000  00000+0  00000-0 0  9996
2 75894  97.9000  48.0000 0000000   0.0000 192.0000 14.75047588    14
CTC2_L_00542006-01
1 75895U 24401GP  26037.47798611  .00000000  00000+0  00000-0 0  9995
2 75895  97.9000  60.0000 0000000   0.0000 240.0000 14.75047588    13
CTC2_L_00542007-01
1 75896U 26163W   26037.47798611  .00000000  00000+0  00000-0 0  9993
2 75896  97.9000  72.0000 0000000   0.0000 288.0000 14.75047588    19
CTC2_L_00542008-01
1 75897U 26180XS  26037.47798611  .00000000  00000+0  00000-0 0  9993
2 75897  97.9000  84.0000 0000000   0.0000 336.0000 14.75047588    17
CTC2_L_00542009-01
1 75898U 25015FT  26037.47798611  .00000000  00000+0  00000-0 0  9990
2 75898  97.9000  96.0000 0000000   0.0000  24.0000 14.75047588    15
CTC2_L_00542010-01
1 75899U 22684SP  26037.47798611  .00000000  00000+0  00000-0 0  9990
2 75899  97.9000 108.0000 0000000   0.0000  72.0000 14.75047588    13
CTC2_L_00542011-01
1 75900U 26462EG  26037.47798611  .00000000  00000+0  00000-0 0  9991
2 75900  97.9000 120.0000 0000000   0.0000 120.0000 14.75047588    14
CTC2_L_00542012-01
1 75901U 26624LH  26037.47798611  .00000000  00000+0  00000-0 0  9992
2 75901  97.9000 132.0000 0000000   0.0000 168.0000 14.75047588    10
CTC2_L_00542013-01
1 75902U 25187OB  26037.47798611  .00000000  00000+0  00000-0 0  9996
2 75902  97.9000 144.0000 0000000   0.0000 216.0000 14.75047588    18
CTC2_L_00542014-01
1 75903U 25436KR  26037.47798611  .00000000  00000+0  00000-0 0  9994
2 75903  97.9000 156.0000 0000000   0.0000 264.0000 14.75047588    15
CTC2_L_00542015-01
1 75904U 22123XI  26037.47798611  .00000000  00000+0  00000-0 0  9995
2 75904  97.9000 168.0000 0000000   0.0000 312.0000 14.75047588    13
CTC2_L_00542016-01
1 75905U 25870CB  26037.47798611  .00000000  00000+0  00000-0 0  9998
2 75905  97.9000 180.0000 0000000   0.0000   0.0000 14.75047588    12
CTC2_L_00542017-01
1 75906U 26116IM  26037.47798611  .00000000  00000+0  00000-0 0  9993
2 75906  97.9000 192.0000 0000000   0.0000  48.0000 14.75047588    18
CTC2_L_00542018-01
1 75907U 23504ML  26037.47798611  .00000000  00000+0  00000-0 0  9992
2 75907  97.9000 204.0000 0000000   0.0000  96.0000 14.75047588    16
CTC2_L_00542019-01
1 75908U 22915KH  26037.47798611  .00000000  00000+0  00000-0 0  9998
2 75908  97.9000 216.0000 0000000   0.0000 144.0000 14.75047588    14
CTC2_L_00542020-01
1 75909U 22750UA  26037.47798611  .00000000  00000+0  00000-0 0  9996
2 75909  97.9000 228.0000 0000000   0.0000 192.0000 14.75047588    11
CTC2_L_00542021-01
1 75910U 25899MZ  26037.47798611  .00000000  00000+0  00000-0 0  9995
2 75910  97.9000 240.0000 0000000   0.0000 240.0000 14.75047588    11
CTC2_L_00542022-01
1 75911U 25060VT  26037.47798611  .00000000  00000+0  00000-0 0  9996
2 75911  97.9000 252.0000 0000000   0.0000 288.0000 14.75047588    17
CTC2_L_00542023-01
1 75912U 25063U   26037.47798611  .00000000  00000+0  00000-0 0  9990
2 75912  97.9000 264.0000 0000000   0.0000 336.0000 14.75047588    15
CTC2_L_00542024-01
1 75913U 22499UY  26037.47798611  .00000000  00000+0  00000-0 0  9991
2 75913  97.9000 276.0000 0000000   0.0000  24.0000 14.75047588    13
CTC2_L_00542025-01
1 75914U 22990OS  26037.47798611  .00000000  00000+0  00000-0 0  9998
2 75914  97.9000 288.0000 0000000   0.0000  72.0000 14.75047588    10
CTC2_L_00542026-01
1 75915U 23561SD  26037.47798611  .00000000  00000+0  00000-0 0  9994
2 75915  97.9000 300.0000 0000000   0.0000 120.0000 14.75047588    10
CTC2_L_00542027-01
1 75916U 26688QI  26037.47798611  .00000000  00000+0  00000-0 0  9998
2 75916  97.9000 312.0000 0000000   0.0000 168.0000 14.75047588    16
CTC2_L_00542028-01
1 75917U 25259JK  26037.47798611  .00000000  00000+0  00000-0 0  9992
2 75917  97.9000 324.0000 0000000   0.0000 216.0000 14.75047588    14
CTC2_L_00542029-01
1 75918U 22269GL  26037.47798611  .00000000  00000+0  00000-0 0  9991
2 75918  97.9000 336.0000 0000000   0.0000 264.0000 14.75047588    11
CTC2_L_00542030-01
1 75919U 26303HZ  26037.47798611  .00000000  00000+0  00000-0 0  9995
2 75919  97.9000 348.0000 0000000   0.0000 312.0000 14.75047588    19
